61P/Shajn-Schaldach,e,5.9989,162.9881,221.9041,3.684671,0.1393497,0.42378666,233.7841,05/02.0/2020,2000,g  6.0,10.0
# From MPC109147
62P/Tsuchinshan,e,7.4361,85.4378,32.5665,3.326770,0.1624314,0.65121826,140.5344,05/02.0/2020,2000,g  8.0,10.0
# From MPC 84320
63P/Wild,e,19.7403,358.0160,169.1567,5.604334,0.0742879,0.64914360,191.7969,05/02.0/2020,2000,g 10.5,6.0
# From MPC111774
64P/Swift-Gehrels,e,8.9503,300.0015,97.1049,4.455417,0.1048025,0.68753473,57.1278,05/02.0/2020,2000,g  9.5,12.0
# From MPC104795
65P/Gunn,e,9.1834,62.0237,213.7693,3.883711,0.1287756,0.24993196,119.4108,05/02.0/2020,2000,g  5.0,6.0
# From MPC109147
66P/du Toit,e,18.6631,21.8766,257.2849,6.061747,0.0660400,0.78697856,47.1382,05/02.0/2020,2000,g  9.0,4.0
# From MPC 89011
67P/Churyumov-Gerasimenko,e,3.8881,36.8557,21.8017,3.454787,0.1534872,0.65218801,275.8698,05/02.0/2020,2000,g 11.0,4.0
# From MPC 75716
68P/Klemola,e,11.1107,175.0815,153.0656,4.948705,0.0895296,0.63750061,15.6633,05/02.0/2020,2000,g 10.0,4.0
# From MPC114607
69P/Taylor,e,22.0330,104.8312,343.5235,3.889870,0.1284699,0.41306948,52.7608,05/02.0/2020,2000,g  9.5,12.0
# From MPC 92276
70P/Kojima,e,6.5982,119.2677,1.8646,3.675160,0.1398910,0.45334558,283.0199,05/02.0/2020,2000,g 11.0,6.0
# From MPC107051
71P/Clark,e,9.4417,59.4393,209.0082,3.138117,0.1772966,0.49423158,183.7573,05/02.0/2020,2000,g  9.8,6.0
# From MPC 89011
72P/Denning-Fujikawa,e,10.9288,26.6904,346.6681,4.311841,0.1100804,0.81796557,234.4624,05/02.0/2020,2000,g 17.5,10.0
# From MPC106348
73P/Schwassmann-Wachmann,e,11.2348,69.6519,199.4359,3.093103,0.1811809,0.68572981,206.8389,05/02.0/2020,2000,g 11.5,6.0
# From MPC106348
73P-T/Schwassmann-Wachmann,e,11.2369,69.6544,199.4173,3.094663,0.1810439,0.68593296,206.6834,05/02.0/2020,2000,g 11.5,6.0
# From MPC102956
74P/Smirnova-Chernykh,e,6.6178,76.9939,90.5967,4.201855,0.1144307,0.15346553,91.9916,05/02.0/2020,2000,g  5.0,6.0
# From MPC118097
76P/West-Kohoutek-Ikemura,e,30.4567,84.1245,0.0138,3.474580,0.1521776,0.53814951,28.7420,05/02.0/2020,2000,g  8.0,12.0
# From MPC100283
77P/Longmore,e,24.3269,14.8011,196.8694,3.620162,0.1430909,0.35252981,207.4607,05/02.0/2020,2000,g  7.0,8.0
# From MPEC 2016-U66
78P/Gehrels,e,6.2486,210.5376,192.6613,3.740168,0.1362597,0.46170100,53.8705,05/02.0/2020,2000,g  9.0,4.0
# From MPC 94675
79P/du Toit-Hartley,e,3.1480,280.5242,281.8255,2.942743,0.1952431,0.61905697,116.5177,05/02.0/2020,2000,g 16.0,4.0
# From MPEC 2014-P41
80P/Peters-Hartley,e,29.9452,259.8222,339.2518,4.024265,0.1220883,0.59916003,243.9627,05/02.0/2020,2000,g  9.0,4.0
# From MPC105241
81P/Wild,e,3.2370,136.1060,41.7196,3.450159,0.1537961,0.53725198,212.6903,05/02.0/2020,2000,g  7.0,6.0
# From MPC 75717
82P/Gehrels,e,1.1284,239.3136,226.9259,4.137425,0.1171140,0.12179549,79.0848,05/02.0/2020,2000,g  5.0,8.0
# From MPC105241
84P/Giclas,e,7.5523,108.1748,281.5618,3.547207,0.1475280,0.51543724,355.1593,05/02.0/2020,2000,g  9.5,8.0
# From MPC109147
86P/Wild,e,15.4755,72.3759,179.3104,3.604181,0.1440437,0.37264740,266.9066,05/02.0/2020,2000,g 11.0,6.0
# From MPC105241
87P/Bus,e,2.6023,181.8619,24.9296,3.437717,0.1546318,0.38917626,358.8791,05/02.0/2020,2000,g  7.2,10.0
# From MPEC 2019-JE2
88P/Howell,e,4.3838,56.6854,235.9171,3.105427,0.1801035,0.56428370,333.4116,05/02.0/2020,2000,g 11.0,6.0
# From MPC100283
89P/Russell,e,12.0711,41.4177,250.2600,3.753898,0.1355128,0.40869235,167.1411,05/02.0/2020,2000,g 11.5,6.0
# From MPC107051
90P/Gehrels,e,9.6401,13.2161,29.1221,6.055933,0.0661352,0.50955053,69.3224,05/02.0/2020,2000,g  8.5,6.0
# From MPC105241
91P/Russell,e,14.0916,247.8283,354.7799,3.890430,0.1284422,0.33058500,335.4278,05/02.0/2020,2000,g  7.5,6.0
# From MPEC 2014-J58
92P/Sanguin,e,19.4757,181.3917,163.7100,5.345782,0.0797420,0.66039112,150.5108,05/02.0/2020,2000,g 12.0,6.0
# From NK 2707
93P/Lovas,e,12.2012,339.6255,74.8725,4.384912,0.1073403,0.61203962,124.3252,05/02.0/2020,2000,g  9.0,4.0
# From MPEC 2013-O31
94P/Russell,e,6.1879,70.8595,92.5182,3.507000,0.1500722,0.36471166,192.6549,05/02.0/2020,2000,g  9.0,4.0
# From MPC 75717
95P/Chiron,e,6.9402,209.2403,339.8123,13.68434,0.0194701,0.37892197,172.2708,05/02.0/2020,2000,g  6.5,2.0
# From MPEC 2017-T14
96P/Machholz,e,58.3254,94.2476,14.6352,3.027684,0.1870847,0.96136690,171.7705,05/02.0/2020,2000,g  9.0,4.0
# From MPC 77020
97P/Metcalf-Brewington,e,17.8741,184.3765,229.2169,4.786127,0.0941299,0.46139325,298.5291,05/02.0/2020,2000,g  5.5,6.0
# From MPEC 2013-H38
98P/Takamizawa,e,10.5614,114.7113,157.9116,3.799002,0.1331067,0.56220381,327.0001,05/02.0/2020,2000,g  9.0,8.0
# From MPEC 2020-H67
99P/Kowal,e,4.3379,28.1270,174.9074,6.114461,0.0651879,0.23042742,313.6902,05/02.0/2020,2000,g  4.5,6.0
# From MPEC 2013-O31
100P/Hartley,e,25.5738,37.7189,182.0029,3.431484,0.1550533,0.41269078,231.1881,05/02.0/2020,2000,g  9.0,4.0
# From MPC115887
101P/Chernykh,e,5.0528,116.2312,277.6940,5.797876,0.0705993,0.59555972,7.8001,05/02.0/2020,2000,g 12.0,4.8
# From MPC 86232
102P/Shoemaker,e,25.8740,339.3858,20.5329,3.816044,0.1322160,0.45767792,324.9124,05/02.0/2020,2000,g  6.5,8.0
# From MPEC 2018-HA5
103P/Hartley,e,13.5923,219.7274,181.2995,3.476777,0.1520333,0.69285397,168.4990,05/02.0/2020,2000,g  8.5,8.0
# From MPC100283
104P/Kowal,e,5.7612,209.1188,225.6162,3.203785,0.1718736,0.66976050,253.9732,05/02.0/2020,2000,g 16.0,4.0
# From MPC109147
105P/Singer Brewster,e,9.1739,192.4199,46.4600,3.466244,0.1527268,0.40997655,96.3529,05/02.0/2020,2000,g 11.5,6.0
# From MPC 92276
106P/Schuster,e,19.5723,49.0543,353.5640,3.764105,0.1349620,0.59460479,296.0905,05/02.0/2020,2000,g 14.0,4.8
# From MPEC 2015-M77
107P/Wilson-Harrington,e,2.7983,266.8178,95.3708,2.625975,0.2316158,0.63115056,164.2992,05/02.0/2020,2000,g  9.0,4.0
# From MPC 89313
108P/Ciffreo,e,11.4729,50.5792,354.1964,3.742614,0.1361261,0.55761419,292.5457,05/02.0/2020,2000,g  8.0,12.0
# From  105, 420
109P/Swift-Tuttle,e,113.9033,139.1055,152.8774,26.10547,0.0073894,0.96320245,74.0133,05/02.0/2020,2000,g  4.0,6.0
# From MPC 92276
110P/Hartley,e,11.7074,287.5339,167.4325,3.600829,0.1442449,0.31777523,282.9185,05/02.0/2020,2000,g  1.0,12.0
# From MPC 75718
111P/Helin-Roman-Crockett,e,4.2275,89.7632,1.2010,4.144135,0.1168297,0.10543714,311.9715,05/02.0/2020,2000,g  5.0,8.0
# From MPC118097
112P/Urata-Niijima,e,24.1905,31.8489,21.4999,3.526221,0.1488469,0.58975580,12.5084,05/02.0/2020,2000,g 14.0,6.0
# From MPEC 2015-E14
113P/Spitaler,e,5.2645,306.9069,115.5554,3.693755,0.1388359,0.43071660,255.3859,05/02.0/2020,2000,g 13.5,4.0
# From MPEC 2019-TG9
114P/Wiseman-Skiff,e,18.2723,271.0598,172.8089,3.547251,0.1475252,0.55476038,16.0688,05/02.0/2020,2000,g 11.5,6.0
# From MPC105241
115P/Maury,e,11.6739,176.0274,121.0202,4.275966,0.1114686,0.51897176,350.1031,05/02.0/2020,2000,g 10.5,6.0
# From MPC106348
116P/Wild,e,3.6044,20.9987,173.3954,3.488188,0.1512879,0.37098240,238.0686,05/02.0/2020,2000,g  2.5,10.0
# From MPEC 2015-S97
117P/Helin-Roman-Alu,e,8.7012,58.8590,222.6921,4.087465,0.1192677,0.25574674,265.1070,05/02.0/2020,2000,g  9.0,4.0
# From MPC 95735
118P/Shoemaker-Levy,e,9.2448,144.4212,310.0096,3.409176,0.1565777,0.45455133,215.3868,05/02.0/2020,2000,g 12.0,4.0
# From MPC 84628
119P/Parker-Hartley,e,7.5378,104.9374,321.4070,3.819890,0.1320164,0.40775411,252.4895,05/02.0/2020,2000,g  3.5,8.0
# From MPC 80901
120P/Mueller,e,8.4839,358.6988,36.3762,3.967653,0.1247107,0.37518377,313.9130,05/02.0/2020,2000,g 12.0,4.0
# From MPC100283
121P/Shoemaker-Holt,e,20.1640,94.1409,11.2330,4.587101,0.1003221,0.18478310,244.4768,05/02.0/2020,2000,g  6.5,8.0
# From MPC 75718
122P/de Vico,e,84.6261,79.5100,13.0238,17.63470,0.0133092,0.96229520,119.6763,05/02.0/2020,2000,g  7.5,5.2
# From MPC114608
123P/West-Hartley,e,15.3469,46.4802,103.1823,3.862696,0.1298280,0.44880455,58.6223,05/02.0/2020,2000,g  4.0,10.0
# From MPEC 2020-H67
124P/Mrkos,e,31.5129,0.3709,183.8559,3.317973,0.1630778,0.50345510,0.8332,05/02.0/2020,2000,g 13.5,2.8
# From MPEC 2015-M77
125P/Spacewatch,e,9.9875,153.1656,87.2079,3.124782,0.1784327,0.51319200,109.4045,05/02.0/2020,2000,g  9.0,4.0
# From MPC 66205
126P/IRAS,e,45.8439,357.8428,356.4954,5.642503,0.0735354,0.69592579,274.7259,05/02.0/2020,2000,g  9.0,4.0
# From MPC 84321
127P/Holt-Olmstead,e,14.2985,13.6483,6.5524,3.449402,0.1538468,0.35979461,232.0786,05/02.0/2020,2000,g 11.0,6.0
# From MPC 89014
128P/Shoemaker-Holt,e,4.3656,214.2926,210.4035,4.494544,0.1034369,0.32032797,125.0026,05/02.0/2020,2000,g  8.5,4.0
# From MPEC 2019-TG9
129P/Shoemaker-Levy,e,3.4433,184.8924,308.2634,4.280504,0.1112914,0.08391603,254.4370,05/02.0/2020,2000,g 11.0,4.0
# From MPC 78188
130P/McNaught-Hughes,e,6.0643,70.2496,245.9501,3.383816,0.1583412,0.46125572,131.5654,05/02.0/2020,2000,g 10.0,6.0
# From MPC102101
131P/Mueller,e,7.3532,214.1802,179.0492,3.681689,0.1395190,0.34354370,64.7158,05/02.0/2020,2000,g 11.0,4.0
# From MPC 92985
132P/Helin-Roman-Alu,e,5.3786,174.1654,216.3997,3.881549,0.1288832,0.56561236,287.8078,05/02.0/2020,2000,g 11.0,6.0
# From MPC 94676
133P/Elst-Pizarro,e,1.3891,160.1291,131.6600,3.163281,0.1751852,0.15722695,103.1195,05/02.0/2020,2000,g 15.4,2.0
# From MPC 89012
134P/Kowal-Vavrova,e,4.3451,202.0834,18.8619,6.256708,0.0629775,0.58698344,136.8373,05/02.0/2020,2000,g 11.5,4.0
# From MPEC 2015-E14
135P/Shoemaker-Levy,e,6.0614,213.0535,22.2312,3.804447,0.1328210,0.29558714,266.3713,05/02.0/2020,2000,g  9.0,4.0
# From MPC101100
136P/Mueller,e,9.4232,137.4421,224.8958,4.195921,0.1146735,0.29201337,164.2077,05/02.0/2020,2000,g 11.0,4.0
# From MPEC 2020-H67
137P/Shoemaker-Levy,e,4.8534,233.0710,141.0069,4.520427,0.1025498,0.57314862,51.8466,05/02.0/2020,2000,g 11.0,4.0
# From MPEC 2016-U66
138P/Shoemaker-Levy,e,10.0907,309.3304,95.5902,3.623578,0.1428886,0.53019051,52.1917,05/02.0/2020,2000,g 15.0,6.0
# From MPEC 2020-H67
139P/Vaisala-Oterma,e,2.3333,242.2014,165.8153,4.525398,0.1023809,0.24624765,89.5262,05/02.0/2020,2000,g  9.5,4.0
# From MPEC 2015-E14
